      2.10          N: GNSS NAV DATA                        RINEX VERSION / TYPE
fic2rin                                 11/26/2020 00:17:28 PGM / RUN BY / DATE
                                                            END OF HEADER
32 20 11 25  1 59 44.0 3.247987478971e-06 3.069544618484e-12 0.000000000000e+00
    1.900000000000e+01-3.468750000000e+01 4.563404369823e-09 1.624532826164e+00
   -1.812353730202e-06 4.264481016435e-03 9.205192327499e-06 5.153608520508e+03
    2.663840000000e+05-9.313225746155e-08 1.897180359120e+00 5.587935447693e-08
    9.567021736856e-01 1.966250000000e+02-2.467578660396e+00-8.058549956666e-09
   -2.171519023912e-10 1.000000000000e+00 2.133000000000e+03 0.000000000000e+00
    2.400000000000e+00 0.000000000000e+00 4.656612873077e-10 1.900000000000e+01
    2.611200000000e+05 4.000000000000e+00
 8 20 11 25  1 59 44.0-5.797483026981e-07-1.364242052659e-12 0.000000000000e+00
    1.000000000000e+00-4.393750000000e+01 4.332680473533e-09 9.975083863425e-01
   -2.181157469749e-06 5.778975435533e-03 8.011236786842e-06 5.153758007050e+03
    2.663840000000e+05 6.891787052155e-08-1.253513535013e+00 3.725290298462e-08
    9.685381698795e-01 2.240937500000e+02-6.740339020461e-02-8.053549748387e-09
   -4.271606500985e-10 1.000000000000e+00 2.133000000000e+03 0.000000000000e+00
    2.400000000000e+00 0.000000000000e+00 5.122274160385e-09 1.000000000000e+00
    2.620500000000e+05 4.000000000000e+00
 8 20 11 25  3 59 44.0-5.895271897316e-07-1.364242052659e-12 0.000000000000e+00
    4.000000000000e+00-4.278125000000e+01 4.431256008171e-09 2.047841721948e+00
   -2.058222889900e-06 5.779124097899e-03 7.823109626770e-06 5.153755796432e+03
    2.735840000000e+05 3.539025783539e-08-1.253572075143e+00 1.862645149231e-07
    9.685353844835e-01 2.329687500000e+02-6.760758723595e-02-8.046763751438e-09
   -3.157274370293e-10 1.000000000000e+00 2.133000000000e+03 0.000000000000e+00
    2.400000000000e+00 0.000000000000e+00 5.122274160385e-09 4.000000000000e+00
    2.664000000000e+05 4.000000000000e+00
32 20 11 25  3 59 44.0 3.269873559475e-06 3.069544618484e-12 0.000000000000e+00
    2.000000000000e+01-3.800000000000e+01 4.423041380284e-09 2.674610727495e+00
   -1.877546310425e-06 4.264111514203e-03 9.113922715187e-06 5.153609846115e+03
    2.735840000000e+05-1.490116119385e-08 1.897122543135e+00-7.078051567078e-08
    9.567013851728e-01 2.006250000000e+02-2.467436277505e+00-7.917472651659e-09
   -1.767930784271e-10 1.000000000000e+00 2.133000000000e+03 0.000000000000e+00
    2.400000000000e+00 0.000000000000e+00 4.656612873077e-10 2.000000000000e+01
    2.664000000000e+05 4.000000000000e+00
 2 20 11 25  4  0  0.0-5.466951988637e-04-4.661160346586e-12 0.000000000000e+00
    2.000000000000e+01 1.653125000000e+01 4.555189741937e-09-1.791865742401e-02
    9.052455425262e-07 2.009900170378e-02 9.495764970779e-06 5.153561939240e+03
    2.736000000000e+05-2.887099981308e-07-2.615945870703e-01 1.303851604462e-08
    9.614965790147e-01 2.030312500000e+02-1.582570681473e+00-8.404992958836e-09
    2.235807416067e-10 1.000000000000e+00 2.133000000000e+03 0.000000000000e+00
    2.400000000000e+00 0.000000000000e+00-1.769512891769e-08 2.000000000000e+01
    2.664000000000e+05 4.000000000000e+00
 1 20 11 25  4  0  0.0 8.038459345698e-04-4.320099833421e-12 0.000000000000e+00
    3.900000000000e+01 2.178125000000e+01 4.050168705784e-09-2.412252595203e-01
    1.139938831329e-06 1.013907010201e-02 8.592382073402e-06 5.153697952271e+03
    2.736000000000e+05 2.607703208923e-08-1.816163436554e-01 1.676380634308e-07
    9.826653503333e-01 2.243750000000e+02 8.258827462000e-01-7.994618722245e-09
    2.192948487964e-10 1.000000000000e+00 2.133000000000e+03 0.000000000000e+00
    2.400000000000e+00 0.000000000000e+00 5.122274160385e-09 3.900000000000e+01
    2.664000000000e+05 4.000000000000e+00
 6 20 11 25  4  0  0.0-2.268701791763e-06-1.250555214938e-12 0.000000000000e+00
    1.300000000000e+01 1.946875000000e+01 3.949450224740e-09 1.798086655241e-01
    1.030042767525e-06 2.017989987507e-03 9.452924132347e-06 5.153660839081e+03
    2.736000000000e+05 5.587935447693e-09-1.898644220781e-01-2.421438694000e-08
    9.821761900264e-01 2.103125000000e+02-1.157949960715e+00-7.817111328350e-09
    2.571535686212e-10 1.000000000000e+00 2.133000000000e+03 0.000000000000e+00
    2.400000000000e+00 0.000000000000e+00 4.190951585770e-09 1.300000000000e+01
    2.664000000000e+05 4.000000000000e+00
 7 20 11 25  4  0  0.0-4.211310297251e-04-7.617018127348e-12 0.000000000000e+00
    2.900000000000e+01 7.143750000000e+01 4.679480633437e-09-9.067525665012e-01
    3.937631845474e-06 1.425282494165e-02 8.964911103249e-06 5.153630096436e+03
    2.736000000000e+05 2.533197402954e-07 2.961006855261e+00 2.719461917877e-07
    9.527325425517e-01 2.011875000000e+02-2.359870753586e+00-8.216770832915e-09
    2.710827202548e-10 1.000000000000e+00 2.133000000000e+03 0.000000000000e+00
    2.400000000000e+00 0.000000000000e+00-1.117587089539e-08 2.900000000000e+01
    2.664000000000e+05 4.000000000000e+00
 5 20 11 25  4  0  0.0-2.673314884305e-05-9.094947017729e-13 0.000000000000e+00
    9.000000000000e+01-1.018750000000e+01 4.954134931034e-09 2.614302757689e+00
   -6.407499313354e-07 6.057100952603e-03 4.561617970467e-06 5.153765317917e+03
    2.736000000000e+05 2.607703208923e-08 8.227522990043e-01-5.029141902924e-08
    9.541976476935e-01 2.889375000000e+02 8.946504494165e-01-8.305345950996e-09
    5.928818387655e-11 1.000000000000e+00 2.133000000000e+03 0.000000000000e+00
    2.400000000000e+00 0.000000000000e+00-1.117587089539e-08 9.000000000000e+01
    2.664000000000e+05 4.000000000000e+00
 3 20 11 25  4  0  0.0-1.286016777158e-05-1.000444171950e-11 0.000000000000e+00
    8.700000000000e+01-1.937500000000e+01 4.638050336270e-09-1.436075903903e+00
   -1.020729541779e-06 3.255626303144e-03 5.146488547325e-06 5.153699714661e+03
    2.736000000000e+05 6.705522537231e-08 8.571420476353e-01 1.862645149231e-09
    9.672462186474e-01 2.850312500000e+02 8.998984339590e-01-8.186055267774e-09
   -6.428839215530e-12 1.000000000000e+00 2.133000000000e+03 0.000000000000e+00
    2.400000000000e+00 0.000000000000e+00 1.862645149231e-09 8.700000000000e+01
    2.664000000000e+05 4.000000000000e+00
 4 20 11 25  4  0  0.0-1.584985293448e-04-3.524291969370e-12 0.000000000000e+00
    8.300000000000e+01-3.709375000000e+01 4.407326439980e-09 1.457824905105e+00
   -1.881271600723e-06 9.370510233566e-04 9.922310709953e-06 5.153613779068e+03
    2.736000000000e+05-3.166496753693e-08 1.937274116043e+00 2.048909664154e-08
    9.598873515725e-01 1.875000000000e+02-3.056643949970e+00-7.938544957976e-09
   -2.596536727606e-10 1.000000000000e+00 2.133000000000e+03 0.000000000000e+00
    2.400000000000e+00 0.000000000000e+00-4.190951585770e-09 5.950000000000e+02
    2.664000000000e+05 4.000000000000e+00
31 20 11 25  4  0  0.0-8.357362821698e-05-2.387423592154e-12 0.000000000000e+00
    1.700000000000e+01 6.546875000000e+01 4.546260798582e-09-1.295036706266e+00
    3.155320882797e-06 9.891535271890e-03 8.543953299522e-06 5.153700078964e+03
    2.736000000000e+05 4.284083843231e-08 2.977298263555e+00-1.564621925354e-07
    9.571136764492e-01 2.079062500000e+02 2.030418629486e-01-8.021762710044e-09
    3.364425856127e-10 1.000000000000e+00 2.133000000000e+03 0.000000000000e+00
    2.400000000000e+00 0.000000000000e+00-1.303851604462e-08 1.700000000000e+01
    2.664000000000e+05 4.000000000000e+00
30 20 11 25  4  0  0.0-3.414228558540e-04-6.480149750132e-12 0.000000000000e+00
    2.400000000000e+01 7.375000000000e+01 4.965206820794e-09-8.926742504371e-01
    3.805384039879e-06 4.718946642242e-03 8.966773748398e-06 5.153783870697e+03
    2.736000000000e+05 1.415610313416e-07 2.980928134891e+00-4.097819328308e-08
    9.379950429157e-01 1.914062500000e+02-2.837448479758e+00-8.271415966247e-09
    3.021554431299e-10 1.000000000000e+00 2.133000000000e+03 0.000000000000e+00
    2.400000000000e+00 0.000000000000e+00 3.725290298462e-09 2.400000000000e+01
    2.664000000000e+05 4.000000000000e+00
16 20 11 25  4  0  0.0-2.412279136479e-04-5.343281372916e-12 0.000000000000e+00
    5.400000000000e+01 1.203125000000e+01 4.450542525817e-09 2.848697332318e+00
    5.383044481277e-07 1.177374157123e-02 4.241243004799e-06 5.153606616974e+03
    2.736000000000e+05-1.024454832077e-07-2.195051227163e+00-1.545995473862e-07
    9.760793545830e-01 3.076250000000e+02 6.305190497521e-01-7.962831683902e-09
   -5.107355599004e-11 1.000000000000e+00 2.133000000000e+03 0.000000000000e+00
    2.400000000000e+00 0.000000000000e+00-1.071020960808e-08 5.400000000000e+01
    2.664000000000e+05 4.000000000000e+00
10 20 11 25  4  0  0.0-8.293427526951e-07-9.094947017729e-12 0.000000000000e+00
    7.900000000000e+01-1.884375000000e+01 4.513045129302e-09-2.233452787245e+00
   -1.018866896629e-06 6.188903236762e-03 5.088746547699e-06 5.153665590286e+03
    2.736000000000e+05-3.725290298462e-09 8.541780322408e-01-8.009374141693e-08
    9.671631249005e-01 2.853437500000e+02-2.653067087808e+00-8.053549748387e-09
    1.217907873609e-10 1.000000000000e+00 2.133000000000e+03 0.000000000000e+00
    2.400000000000e+00 0.000000000000e+00 2.328306436539e-09 7.900000000000e+01
    2.664000000000e+05 4.000000000000e+00
 9 20 11 25  4  0  0.0-2.936781384051e-04-4.547473508865e-12 0.000000000000e+00
    6.800000000000e+01-4.087500000000e+01 4.536617539759e-09 2.373923736298e+00
   -2.073124051094e-06 2.005943097174e-03 9.730458259583e-06 5.153616859436e+03
    2.736000000000e+05 3.166496753693e-08 1.887903215844e+00 4.284083843231e-08
    9.526475967505e-01 1.857812500000e+02 1.769557268660e+00-8.003547665600e-09
   -2.671539851787e-10 1.000000000000e+00 2.133000000000e+03 0.000000000000e+00
    2.400000000000e+00 0.000000000000e+00 1.396983861923e-09 6.800000000000e+01
    2.664000000000e+05 4.000000000000e+00
